IRIDIUM 166             
1 43570U 18061B   23312.79196669  .00000665  00000+0  23031-3 0  9997
2 43570  86.3942  94.3616 0002190  99.2676 260.8767 14.34215735277033
IRIDIUM 158             
1 43571U 18061C   23312.89979545  .00000521  00000+0  17892-3 0  9990
2 43571  86.3937  94.3252 0002373  93.9692 266.1775 14.34216446277012
IRIDIUM 165             
1 43572U 18061D   23313.13446451  .00000686  00000+0  23772-3 0  9990
2 43572  86.3939  94.2555 0002450  93.0607 267.0869 14.34222714277078
IRIDIUM 155             
1 43573U 18061E   23312.88710610  .00000747  00000+0  25959-3 0  9990
2 43573  86.3934  94.2748 0001882  94.9315 265.2096 14.34221421277012
IRIDIUM 154             
1 43574U 18061F   23312.93784551  .00000454  00000+0  15503-3 0  9991
2 43574  86.3936  94.3405 0002047  83.7963 276.3466 14.34219713277065
IRIDIUM 163             
1 43575U 18061G   23312.91881968  .00000734  00000+0  25487-3 0  9993
2 43575  86.3933  94.2935 0002095  89.2538 270.8898 14.34219939277037
IRIDIUM 156             
1 43576U 18061H   23312.89343616  .00000615  00000+0  21255-3 0  9991
2 43576  86.3924  94.3080 0001660  86.9121 273.2265 14.34216385277025
IRIDIUM 164             
1 43577U 18061J   23312.94419076  .00000614  00000+0  21225-3 0  9998
2 43577  86.3936  94.3146 0002161  94.7009 265.4433 14.34218946277071
